{
  "type": "FeatureCollection",
  "features": [
    {
      "type": "Feature",
      "properties": {
        "norad_id": 30232,
        "name": "FENGYUN 1C DEB",
        "group": "fengyun-1c-debris",
        "lat": 18.183991928226046,
        "lon": -161.3121213710999,
        "alt_km": 650.6197505993678,
        "timestamp": "2025-12-26T15:29:39.714157+00:00",
        "meta_object_name": "FENGYUN 1C DEB",
        "meta_object_id": "1999-025WR",
        "meta_epoch": "2025-12-26T01:20:37.444416",
        "meta_mean_motion": 14.63702976,
        "meta_eccentricity": 0.01351296,
        "meta_inclination": 98.6922,
        "meta_ra_of_asc_node": 200.9466,
        "meta_arg_of_pericenter": 308.5268,
        "meta_mean_anomaly": 203.4907,
        "meta_ephemeris_type": 0,
        "meta_classification_type": "U",
        "meta_norad_cat_id": 30232,
        "meta_element_set_no": 999,
        "meta_rev_at_epoch": 99946,
        "meta_bstar": 0.00083707772,
        "meta_mean_motion_dot": 4.916e-05,
        "meta_mean_motion_ddot": 0,
        "tle_line1": "1 30232U 99025WR  25360.05598894  .00004916  00000+0  83708-3 0  9997",
        "tle_line2": "2 30232  98.6922 200.9466 0135129 308.5268 203.4907 14.63702976999465"
      },
      "geometry": {
        "type": "Point",
        "coordinates": [
          -161.3121213710999,
          18.183991928226046
        ]
      }
    },
    {
      "type": "Feature",
      "properties": {
        "norad_id": 30234,
        "name": "FENGYUN 1C DEB",
        "group": "fengyun-1c-debris",
        "lat": 75.63874602583508,
        "lon": -132.58695167522666,
        "alt_km": 808.7606622266003,
        "timestamp": "2025-12-26T15:29:39.714167+00:00",
        "meta_object_name": "FENGYUN 1C DEB",
        "meta_object_id": "1999-025WT",
        "meta_epoch": "2025-12-25T22:24:25.454016",
        "meta_mean_motion": 14.16882078,
        "meta_eccentricity": 0.0066627,
        "meta_inclination": 98.6335,
        "meta_ra_of_asc_node": 10.3237,
        "meta_arg_of_pericenter": 37.7195,
        "meta_mean_anomaly": 33.5222,
        "meta_ephemeris_type": 0,
        "meta_classification_type": "U",
        "meta_norad_cat_id": 30234,
        "meta_element_set_no": 999,
        "meta_rev_at_epoch": 97643,
        "meta_bstar": 0.00032844,
        "meta_mean_motion_dot": 6.31e-06,
        "meta_mean_motion_ddot": 0,
        "tle_line1": "1 30234U 99025WT  25359.93362794  .00000631  00000+0  32844-3 0  9997",
        "tle_line2": "2 30234  98.6335  10.3237 0066627  37.7195  33.5222 14.16882078976434"
      },
      "geometry": {
        "type": "Point",
        "coordinates": [
          -132.58695167522666,
          75.63874602583508
        ]
      }
    },
    {
      "type": "Feature",
      "properties": {
        "norad_id": 30235,
        "name": "FENGYUN 1C DEB",
        "group": "fengyun-1c-debris",
        "lat": 17.321722759524082,
        "lon": 15.65620672710195,
        "alt_km": 975.3114009402007,
        "timestamp": "2025-12-26T15:29:39.714184+00:00",
        "meta_object_name": "FENGYUN 1C DEB",
        "meta_object_id": "1999-025WU",
        "meta_epoch": "2025-12-26T07:11:43.156320",
        "meta_mean_motion": 14.08795042,
        "meta_eccentricity": 0.01538758,
        "meta_inclination": 98.7488,
        "meta_ra_of_asc_node": 18.0733,
        "meta_arg_of_pericenter": 200.1053,
        "meta_mean_anomaly": 224.7171,
        "meta_ephemeris_type": 0,
        "meta_classification_type": "U",
        "meta_norad_cat_id": 30235,
        "meta_element_set_no": 999,
        "meta_rev_at_epoch": 97084,
        "meta_bstar": 0.00032457473,
        "meta_mean_motion_dot": 5.82e-06,
        "meta_mean_motion_ddot": 0,
        "tle_line1": "1 30235U 99025WU  25360.29980505  .00000582  00000+0  32457-3 0  9990",
        "tle_line2": "2 30235  98.7488  18.0733 0153875 200.1053 224.7171 14.08795042970843"
      },
      "geometry": {
        "type": "Point",
        "coordinates": [
          15.65620672710195,
          17.321722759524082
        ]
      }
    },
    {
      "type": "Feature",
      "properties": {
        "norad_id": 30237,
        "name": "FENGYUN 1C DEB",
        "group": "fengyun-1c-debris",
        "lat": 58.11891604796722,
        "lon": -61.6956929874853,
        "alt_km": 757.7124252272115,
        "timestamp": "2025-12-26T15:29:39.714204+00:00",
        "meta_object_name": "FENGYUN 1C DEB",
        "meta_object_id": "1999-025WW",
        "meta_epoch": "2025-12-25T19:30:23.037696",
        "meta_mean_motion": 14.41073296,
        "meta_eccentricity": 0.00150419,
        "meta_inclination": 98.8251,
        "meta_ra_of_asc_node": 102.9807,
        "meta_arg_of_pericenter": 265.0707,
        "meta_mean_anomaly": 217.5744,
        "meta_ephemeris_type": 0,
        "meta_classification_type": "U",
        "meta_norad_cat_id": 30237,
        "meta_element_set_no": 999,
        "meta_rev_at_epoch": 97886,
        "meta_bstar": 0.0024962756,
        "meta_mean_motion_dot": 8.008e-05,
        "meta_mean_motion_ddot": 0,
        "tle_line1": "1 30237U 99025WW  25359.81276664  .00008008  00000+0  24963-2 0  9995",
        "tle_line2": "2 30237  98.8251 102.9807 0015041 265.0707 217.5744 14.41073296978860"
      },
      "geometry": {
        "type": "Point",
        "coordinates": [
          -61.6956929874853,
          58.11891604796722
        ]
      }
    },
    {
      "type": "Feature",
      "properties": {
        "norad_id": 30239,
        "name": "FENGYUN 1C DEB",
        "group": "fengyun-1c-debris",
        "lat": -62.34688772617768,
        "lon": 163.2775985846658,
        "alt_km": 1452.8942412591114,
        "timestamp": "2025-12-26T15:29:39.714221+00:00",
        "meta_object_name": "FENGYUN 1C DEB",
        "meta_object_id": "1999-025WY",
        "meta_epoch": "2025-12-25T08:09:34.826688",
        "meta_mean_motion": 11.38313198,
        "meta_eccentricity": 0.1353739,
        "meta_inclination": 99.5606,
        "meta_ra_of_asc_node": 143.6441,
        "meta_arg_of_pericenter": 7.9122,
        "meta_mean_anomaly": 354.1101,
        "meta_ephemeris_type": 0,
        "meta_classification_type": "U",
        "meta_norad_cat_id": 30239,
        "meta_element_set_no": 999,
        "meta_rev_at_epoch": 54678,
        "meta_bstar": 0.027272,
        "meta_mean_motion_dot": 9.342e-05,
        "meta_mean_motion_ddot": 0,
        "tle_line1": "1 30239U 99025WY  25359.33998642  .00009342  00000+0  27272-1 0  9998",
        "tle_line2": "2 30239  99.5606 143.6441 1353739   7.9122 354.1101 11.38313198546782"
      },
      "geometry": {
        "type": "Point",
        "coordinates": [
          163.2775985846658,
          -62.34688772617768
        ]
      }
    },
    {
      "type": "Feature",
      "properties": {
        "norad_id": 30241,
        "name": "FENGYUN 1C DEB",
        "group": "fengyun-1c-debris",
        "lat": -78.04443189511306,
        "lon": -176.68728804394152,
        "alt_km": 927.4366796529766,
        "timestamp": "2025-12-26T15:29:39.714261+00:00",
        "meta_object_name": "FENGYUN 1C DEB",
        "meta_object_id": "1999-025XA",
        "meta_epoch": "2025-12-26T07:30:10.135584",
        "meta_mean_motion": 14.09559789,
        "meta_eccentricity": 0.01464808,
        "meta_inclination": 99.1491,
        "meta_ra_of_asc_node": 133.4153,
        "meta_arg_of_pericenter": 43.3309,
        "meta_mean_anomaly": 347.0435,
        "meta_ephemeris_type": 0,
        "meta_classification_type": "U",
        "meta_norad_cat_id": 30241,
        "meta_element_set_no": 999,
        "meta_rev_at_epoch": 97103,
        "meta_bstar": 0.00028520926,
        "meta_mean_motion_dot": 5.06e-06,
        "meta_mean_motion_ddot": 0,
        "tle_line1": "1 30241U 99025XA  25360.31261731  .00000506  00000+0  28521-3 0  9996",
        "tle_line2": "2 30241  99.1491 133.4153 0146480  43.3309 347.0435 14.09559789971033"
      },
      "geometry": {
        "type": "Point",
        "coordinates": [
          -176.68728804394152,
          -78.04443189511306
        ]
      }
    },
    {
      "type": "Feature",
      "properties": {
        "norad_id": 30242,
        "name": "FENGYUN 1C DEB",
        "group": "fengyun-1c-debris",
        "lat": -75.61046698973253,
        "lon": 177.946788886483,
        "alt_km": 843.9473432149398,
        "timestamp": "2025-12-26T15:29:39.714281+00:00",
        "meta_object_name": "FENGYUN 1C DEB",
        "meta_object_id": "1999-025XB",
        "meta_epoch": "2025-12-26T00:51:58.539744",
        "meta_mean_motion": 14.17668535,
        "meta_eccentricity": 0.00104537,
        "meta_inclination": 98.6824,
        "meta_ra_of_asc_node": 33.9055,
        "meta_arg_of_pericenter": 17.084,
        "meta_mean_anomaly": 12.5603,
        "meta_ephemeris_type": 0,
        "meta_classification_type": "U",
        "meta_norad_cat_id": 30242,
        "meta_element_set_no": 999,
        "meta_rev_at_epoch": 97615,
        "meta_bstar": 0.00053887024,
        "meta_mean_motion_dot": 1.054e-05,
        "meta_mean_motion_ddot": 0,
        "tle_line1": "1 30242U 99025XB  25360.03609421  .00001054  00000+0  53887-3 0  9990",
        "tle_line2": "2 30242  98.6824  33.9055 0010453  17.0840  12.5603 14.17668535976159"
      },
      "geometry": {
        "type": "Point",
        "coordinates": [
          177.946788886483,
          -75.61046698973253
        ]
      }
    }
  ]
}